{
  "type": "FeatureCollection",
  "features": [
    {
      "type": "Feature",
      "properties": {
        "norad_id": 31036,
        "name": "FENGYUN 1C DEB",
        "group": "fengyun-1c-debris",
        "lat": 25.503195673002743,
        "lon": 90.56984200272278,
        "alt_km": 784.495279634888,
        "timestamp": "2025-12-14T07:33:19.758181+00:00",
        "meta_object_name": "FENGYUN 1C DEB",
        "meta_object_id": "1999-025BEE",
        "meta_epoch": "2025-12-13T13:15:42.844608",
        "meta_mean_motion": 14.49074986,
        "meta_eccentricity": 0.01374809,
        "meta_inclination": 98.9152,
        "meta_ra_of_asc_node": 94.0592,
        "meta_arg_of_pericenter": 262.138,
        "meta_mean_anomaly": 108.4902,
        "meta_ephemeris_type": 0,
        "meta_classification_type": "U",
        "meta_norad_cat_id": 31036,
        "meta_element_set_no": 999,
        "meta_rev_at_epoch": 57319,
        "meta_bstar": 0.00034934031,
        "meta_mean_motion_dot": 1.438e-05,
        "meta_mean_motion_ddot": 0,
        "tle_line1": "1 31036U 99025BEE 25347.55257922  .00001438  00000+0  34934-3 0  9997",
        "tle_line2": "2 31036  98.9152  94.0592 0137480 262.1380 108.4902 14.49074986573194"
      },
      "geometry": {
        "type": "Point",
        "coordinates": [
          90.56984200272278,
          25.503195673002743
        ]
      }
    },
    {
      "type": "Feature",
      "properties": {
        "norad_id": 31038,
        "name": "FENGYUN 1C DEB",
        "group": "fengyun-1c-debris",
        "lat": 15.415012931178689,
        "lon": -105.06084033101895,
        "alt_km": 709.2636253962046,
        "timestamp": "2025-12-14T07:33:19.758191+00:00",
        "meta_object_name": "FENGYUN 1C DEB",
        "meta_object_id": "1999-025BEG",
        "meta_epoch": "2025-12-13T10:51:37.410048",
        "meta_mean_motion": 14.45830394,
        "meta_eccentricity": 0.0084057,
        "meta_inclination": 99.0136,
        "meta_ra_of_asc_node": 71.515,
        "meta_arg_of_pericenter": 226.3321,
        "meta_mean_anomaly": 133.088,
        "meta_ephemeris_type": 0,
        "meta_classification_type": "U",
        "meta_norad_cat_id": 31038,
        "meta_element_set_no": 999,
        "meta_rev_at_epoch": 98245,
        "meta_bstar": 0.00098566857,
        "meta_mean_motion_dot": 3.603e-05,
        "meta_mean_motion_ddot": 0,
        "tle_line1": "1 31038U 99025BEG 25347.45251632  .00003603  00000+0  98567-3 0  9998",
        "tle_line2": "2 31038  99.0136  71.5150 0084057 226.3321 133.0880 14.45830394982459"
      },
      "geometry": {
        "type": "Point",
        "coordinates": [
          -105.06084033101895,
          15.415012931178689
        ]
      }
    },
    {
      "type": "Feature",
      "properties": {
        "norad_id": 31040,
        "name": "FENGYUN 1C DEB",
        "group": "fengyun-1c-debris",
        "lat": 21.79235963000675,
        "lon": -25.369490001419056,
        "alt_km": 876.7798351146666,
        "timestamp": "2025-12-14T07:33:19.758201+00:00",
        "meta_object_name": "FENGYUN 1C DEB",
        "meta_object_id": "1999-025BEJ",
        "meta_epoch": "2025-12-13T06:06:58.449888",
        "meta_mean_motion": 14.17672826,
        "meta_eccentricity": 0.0062298,
        "meta_inclination": 98.6581,
        "meta_ra_of_asc_node": 337.0901,
        "meta_arg_of_pericenter": 192.6008,
        "meta_mean_anomaly": 183.0791,
        "meta_ephemeris_type": 0,
        "meta_classification_type": "U",
        "meta_norad_cat_id": 31040,
        "meta_element_set_no": 999,
        "meta_rev_at_epoch": 96714,
        "meta_bstar": 0.00045723199,
        "meta_mean_motion_dot": 9.06e-06,
        "meta_mean_motion_ddot": 0,
        "tle_line1": "1 31040U 99025BEJ 25347.25484317  .00000906  00000+0  45723-3 0  9996",
        "tle_line2": "2 31040  98.6581 337.0901 0062298 192.6008 183.0791 14.17672826967143"
      },
      "geometry": {
        "type": "Point",
        "coordinates": [
          -25.369490001419056,
          21.79235963000675
        ]
      }
    },
    {
      "type": "Feature",
      "properties": {
        "norad_id": 31041,
        "name": "FENGYUN 1C DEB",
        "group": "fengyun-1c-debris",
        "lat": -76.75154407727148,
        "lon": 153.47933447840038,
        "alt_km": 803.9470667756004,
        "timestamp": "2025-12-14T07:33:19.758211+00:00",
        "meta_object_name": "FENGYUN 1C DEB",
        "meta_object_id": "1999-025BEK",
        "meta_epoch": "2025-12-13T13:23:15.179712",
        "meta_mean_motion": 14.17848777,
        "meta_eccentricity": 0.00869203,
        "meta_inclination": 99.2057,
        "meta_ra_of_asc_node": 16.2297,
        "meta_arg_of_pericenter": 317.9642,
        "meta_mean_anomaly": 41.4884,
        "meta_ephemeris_type": 0,
        "meta_classification_type": "U",
        "meta_norad_cat_id": 31041,
        "meta_element_set_no": 999,
        "meta_rev_at_epoch": 95501,
        "meta_bstar": 0.0026141968,
        "meta_mean_motion_dot": 5.496e-05,
        "meta_mean_motion_ddot": 0,
        "tle_line1": "1 31041U 99025BEK 25347.55781458  .00005496  00000+0  26142-2 0  9998",
        "tle_line2": "2 31041  99.2057  16.2297 0086920 317.9642  41.4884 14.17848777955010"
      },
      "geometry": {
        "type": "Point",
        "coordinates": [
          153.47933447840038,
          -76.75154407727148
        ]
      }
    },
    {
      "type": "Feature",
      "properties": {
        "norad_id": 31043,
        "name": "FENGYUN 1C DEB",
        "group": "fengyun-1c-debris",
        "lat": -35.779042377739664,
        "lon": 179.69599623500883,
        "alt_km": 895.0291190094922,
        "timestamp": "2025-12-14T07:33:19.758224+00:00",
        "meta_object_name": "FENGYUN 1C DEB",
        "meta_object_id": "1999-025BEM",
        "meta_epoch": "2025-12-12T23:58:56.546112",
        "meta_mean_motion": 14.08429162,
        "meta_eccentricity": 0.0041356,
        "meta_inclination": 98.7644,
        "meta_ra_of_asc_node": 4.8011,
        "meta_arg_of_pericenter": 3.4263,
        "meta_mean_anomaly": 26.4552,
        "meta_ephemeris_type": 0,
        "meta_classification_type": "U",
        "meta_norad_cat_id": 31043,
        "meta_element_set_no": 999,
        "meta_rev_at_epoch": 95991,
        "meta_bstar": 0.00070435853,
        "meta_mean_motion_dot": 1.174e-05,
        "meta_mean_motion_ddot": 0,
        "tle_line1": "1 31043U 99025BEM 25346.99926558  .00001174  00000+0  70436-3 0  9994",
        "tle_line2": "2 31043  98.7644   4.8011 0041356   3.4263  26.4552 14.08429162959916"
      },
      "geometry": {
        "type": "Point",
        "coordinates": [
          179.69599623500883,
          -35.779042377739664
        ]
      }
    },
    {
      "type": "Feature",
      "properties": {
        "norad_id": 31046,
        "name": "FENGYUN 1C DEB",
        "group": "fengyun-1c-debris",
        "lat": -12.015578146763044,
        "lon": 110.06516996490103,
        "alt_km": 696.2657209002555,
        "timestamp": "2025-12-14T07:33:19.758235+00:00",
        "meta_object_name": "FENGYUN 1C DEB",
        "meta_object_id": "1999-025BEQ",
        "meta_epoch": "2025-12-13T00:43:08.397984",
        "meta_mean_motion": 14.63820373,
        "meta_eccentricity": 0.00464401,
        "meta_inclination": 98.9674,
        "meta_ra_of_asc_node": 106.742,
        "meta_arg_of_pericenter": 102.2684,
        "meta_mean_anomaly": 319.076,
        "meta_ephemeris_type": 0,
        "meta_classification_type": "U",
        "meta_norad_cat_id": 31046,
        "meta_element_set_no": 999,
        "meta_rev_at_epoch": 96647,
        "meta_bstar": 0.0059723208,
        "meta_mean_motion_dot": 0.0003175,
        "meta_mean_motion_ddot": 0,
        "tle_line1": "1 31046U 99025BEQ 25347.02995831  .00031750  00000+0  59723-2 0  9990",
        "tle_line2": "2 31046  98.9674 106.7420 0046440 102.2684 319.0760 14.63820373966475"
      },
      "geometry": {
        "type": "Point",
        "coordinates": [
          110.06516996490103,
          -12.015578146763044
        ]
      }
    },
    {
      "type": "Feature",
      "properties": {
        "norad_id": 31047,
        "name": "FENGYUN 1C DEB",
        "group": "fengyun-1c-debris",
        "lat": -38.18568872720495,
        "lon": 158.78836314291215,
        "alt_km": 839.5810428766281,
        "timestamp": "2025-12-14T07:33:19.758245+00:00",
        "meta_object_name": "FENGYUN 1C DEB",
        "meta_object_id": "1999-025BER",
        "meta_epoch": "2025-12-12T05:34:00.054912",
        "meta_mean_motion": 14.13841318,
        "meta_eccentricity": 0.00255963,
        "meta_inclination": 98.7004,
        "meta_ra_of_asc_node": 343.6788,
        "meta_arg_of_pericenter": 179.2346,
        "meta_mean_anomaly": 243.6594,
        "meta_ephemeris_type": 0,
        "meta_classification_type": "U",
        "meta_norad_cat_id": 31047,
        "meta_element_set_no": 999,
        "meta_rev_at_epoch": 96352,
        "meta_bstar": 0.00060318894,
        "meta_mean_motion_dot": 1.103e-05,
        "meta_mean_motion_ddot": 0,
        "tle_line1": "1 31047U 99025BER 25346.23194508  .00001103  00000+0  60319-3 0  9998",
        "tle_line2": "2 31047  98.7004 343.6788 0025596 179.2346 243.6594 14.13841318963525"
      },
      "geometry": {
        "type": "Point",
        "coordinates": [
          158.78836314291215,
          -38.18568872720495
        ]
      }
    }
  ]
}